{"type": "FeatureCollection", "features": [ {"type": "Feature", "properties": {"norad_id": 30146, "name": "FENGYUN 1C DEB", "group": "fengyun-1c-debris", "lat": -9.050485342569976, "lon": 140.9178949499561, "alt_km": 1061.3641467999532, "timestamp": "2025-12-04T21:36:16.147145+00:00", "meta": {"OBJECT_NAME": "FENGYUN 1C DEB", "OBJECT_ID": "1999-025TB", "EPOCH": "2025-12-04T05:09:11.644704", "MEAN_MOTION": 13.86577582, "ECCENTRICITY": 0.01787391, "INCLINATION": 98.0201, "RA_OF_ASC_NODE": 139.0428, "ARG_OF_PERICENTER": 146.4834, "MEAN_ANOMALY": 25.6751, "EPHEMERIS_TYPE": 0, "CLASSIFICATION_TYPE": "U", "NORAD_CAT_ID": 30146, "ELEMENT_SET_NO": 999, "REV_AT_EPOCH": 95299, "BSTAR": 0.0012330809, "MEAN_MOTION_DOT": 1.591e-05, "MEAN_MOTION_DDOT": 0}, "tle": {"line1": "1 30146U 99025TB  25338.21471811  .00001591  00000+0  12331-2 0  9992", "line2": "2 30146  98.0201 139.0428 0178739 146.4834  25.6751 13.86577582952990"}}, "geometry": {"type": "Point", "coordinates": [140.9178949499561, -9.050485342569976]}}, {"type": "Feature", "properties": {"norad_id": 30148, "name": "FENGYUN 1C DEB", "group": "fengyun-1c-debris", "lat": -34.99807441756787, "lon": 134.7865120498105, "alt_km": 967.8676972612138, "timestamp": "2025-12-04T21:36:16.147155+00:00", "meta": {"OBJECT_NAME": "FENGYUN 1C DEB", "OBJECT_ID": "1999-025TD", "EPOCH": "2025-12-02T23:40:52.710816", "MEAN_MOTION": 13.88451209, "ECCENTRICITY": 0.01347826, "INCLINATION": 99.5453, "RA_OF_ASC_NODE": 126.0634, "ARG_OF_PERICENTER": 222.5829, "MEAN_ANOMALY": 261.2361, "EPHEMERIS_TYPE": 0, "CLASSIFICATION_TYPE": "U", "NORAD_CAT_ID": 30148, "ELEMENT_SET_NO": 999, "REV_AT_EPOCH": 95381, "BSTAR": 0.0011371118, "MEAN_MOTION_DOT": 1.42e-05, "MEAN_MOTION_DDOT": 0}, "tle": {"line1": "1 30148U 99025TD  25336.98672119  .00001420  00000+0  11371-2 0  9994", "line2": "2 30148  99.5453 126.0634 0134782 222.5829 261.2361 13.88451209953818"}}, "geometry": {"type": "Point", "coordinates": [134.7865120498105, -34.99807441756787]}}, {"type": "Feature", "properties": {"norad_id": 30150, "name": "FENGYUN 1C DEB", "group": "fengyun-1c-debris", "lat": 25.349063738672438, "lon": -60.50676153374461, "alt_km": 1038.1882696570265, "timestamp": "2025-12-04T21:36:16.147166+00:00", "meta": {"OBJECT_NAME": "FENGYUN 1C DEB", "OBJECT_ID": "1999-025TF", "EPOCH": "2025-12-04T09:02:38.632992", "MEAN_MOTION": 13.86579234, "ECCENTRICITY": 0.01467092, "INCLINATION": 98.9941, "RA_OF_ASC_NODE": 114.6871, "ARG_OF_PERICENTER": 358.8517, "MEAN_ANOMALY": 63.7026, "EPHEMERIS_TYPE": 0, "CLASSIFICATION_TYPE": "U", "NORAD_CAT_ID": 30150, "ELEMENT_SET_NO": 999, "REV_AT_EPOCH": 95342, "BSTAR": 0.00077744331, "MEAN_MOTION_DOT": 9.41e-06, "MEAN_MOTION_DDOT": 0}, "tle": {"line1": "1 30150U 99025TF  25338.37683603  .00000941  00000+0  77744-3 0  9996", "line2": "2 30150  98.9941 114.6871 0146709 358.8517  63.7026 13.86579234953428"}}, "geometry": {"type": "Point", "coordinates": [-60.50676153374461, 25.349063738672438]}}, {"type": "Feature", "properties": {"norad_id": 30151, "name": "FENGYUN 1C DEB", "group": "fengyun-1c-debris", "lat": 16.8229004952036, "lon": -15.620741967884511, "alt_km": 920.2084389435649, "timestamp": "2025-12-04T21:36:16.147176+00:00", "meta": {"OBJECT_NAME": "FENGYUN 1C DEB", "OBJECT_ID": "1999-025TG", "EPOCH": "2025-12-03T00:43:17.165856", "MEAN_MOTION": 13.84448896, "ECCENTRICITY": 0.0163271, "INCLINATION": 99.0635, "RA_OF_ASC_NODE": 345.34, "ARG_OF_PERICENTER": 304.9779, "MEAN_ANOMALY": 114.6215, "EPHEMERIS_TYPE": 0, "CLASSIFICATION_TYPE": "U", "NORAD_CAT_ID": 30151, "ELEMENT_SET_NO": 999, "REV_AT_EPOCH": 95111, "BSTAR": 0.00089012415, "MEAN_MOTION_DOT": 1.062e-05, "MEAN_MOTION_DDOT": 0}, "tle": {"line1": "1 30151U 99025TG  25337.03005979  .00001062  00000+0  89012-3 0  9999", "line2": "2 30151  99.0635 345.3400 0163271 304.9779 114.6215 13.84448896951114"}}, "geometry": {"type": "Point", "coordinates": [-15.620741967884511, 16.8229004952036]}}, {"type": "Feature", "properties": {"norad_id": 30152, "name": "FENGYUN 1C DEB", "group": "fengyun-1c-debris", "lat": 23.739594031154677, "lon": 20.780819367808203, "alt_km": 826.6484889372641, "timestamp": "2025-12-04T21:36:16.147186+00:00", "meta": {"OBJECT_NAME": "FENGYUN 1C DEB", "OBJECT_ID": "1999-025TH", "EPOCH": "2025-12-04T13:59:53.537856", "MEAN_MOTION": 13.96604774, "ECCENTRICITY": 0.01610659, "INCLINATION": 99.0803, "RA_OF_ASC_NODE": 196.4349, "ARG_OF_PERICENTER": 107.8644, "MEAN_ANOMALY": 254.0158, "EPHEMERIS_TYPE": 0, "CLASSIFICATION_TYPE": "U", "NORAD_CAT_ID": 30152, "ELEMENT_SET_NO": 999, "REV_AT_EPOCH": 95264, "BSTAR": 0.0043094389, "MEAN_MOTION_DOT": 6.62e-05, "MEAN_MOTION_DDOT": 0}, "tle": {"line1": "1 30152U 99025TH  25338.58325854  .00006620  00000+0  43094-2 0  9992", "line2": "2 30152  99.0803 196.4349 0161065 107.8644 254.0158 13.96604774952645"}}, "geometry": {"type": "Point", "coordinates": [20.780819367808203, 23.739594031154677]}}, {"type": "Feature", "properties": {"norad_id": 30153, "name": "FENGYUN 1C DEB", "group": "fengyun-1c-debris", "lat": -66.37108670058124, "lon": -6.53259551845605, "alt_km": 983.1602286341194, "timestamp": "2025-12-04T21:36:16.147196+00:00", "meta": {"OBJECT_NAME": "FENGYUN 1C DEB", "OBJECT_ID": "1999-025TJ", "EPOCH": "2025-12-03T21:50:19.984992", "MEAN_MOTION": 13.78731597, "ECCENTRICITY": 0.02008215, "INCLINATION": 100.4661, "RA_OF_ASC_NODE": 327.3826, "ARG_OF_PERICENTER": 27.9772, "MEAN_ANOMALY": 33.217, "EPHEMERIS_TYPE": 0, "CLASSIFICATION_TYPE": "U", "NORAD_CAT_ID": 30153, "ELEMENT_SET_NO": 999, "REV_AT_EPOCH": 94653, "BSTAR": 0.001678671, "MEAN_MOTION_DOT": 1.931e-05, "MEAN_MOTION_DDOT": 0}, "tle": {"line1": "1 30153U 99025TJ  25337.90995353  .00001931  00000+0  16787-2 0  9994", "line2": "2 30153 100.4661 327.3826 0200821  27.9772  33.2170 13.78731597946534"}}, "geometry": {"type": "Point", "coordinates": [-6.53259551845605, -66.37108670058124]}}, {"type": "Feature", "properties": {"norad_id": 30154, "name": "FENGYUN 1C DEB", "group": "fengyun-1c-debris", "lat": -16.85904280456883, "lon": 24.02797480241433, "alt_km": 1018.7225571326708, "timestamp": "2025-12-04T21:36:16.147207+00:00", "meta": {"OBJECT_NAME": "FENGYUN 1C DEB", "OBJECT_ID": "1999-025TK", "EPOCH": "2025-12-02T02:15:41.257728", "MEAN_MOTION": 13.85922523, "ECCENTRICITY": 0.01824653, "INCLINATION": 98.4506, "RA_OF_ASC_NODE": 18.9121, "ARG_OF_PERICENTER": 227.7645, "MEAN_ANOMALY": 161.336, "EPHEMERIS_TYPE": 0, "CLASSIFICATION_TYPE": "U", "NORAD_CAT_ID": 30154, "ELEMENT_SET_NO": 999, "REV_AT_EPOCH": 94837, "BSTAR": 0.0017171262, "MEAN_MOTION_DOT": 2.209e-05, "MEAN_MOTION_DDOT": 0}, "tle": {"line1": "1 30154U 99025TK  25336.09422752  .00002209  00000+0  17171-2 0  9999", "line2": "2 30154  98.4506  18.9121 0182465 227.7645 161.3360 13.85922523948379"}}, "geometry": {"type": "Point", "coordinates": [24.02797480241433, -16.85904280456883]}}, {"type": "Feature", "properties": {"norad_id": 30155, "name": "FENGYUN 1C DEB", "group": "fengyun-1c-debris", "lat": -2.968699536341966, "lon": -128.24554033281944, "alt_km": 1167.4058316023202, "timestamp": "2025-12-04T21:36:16.147217+00:00", "meta": {"OBJECT_NAME": "FENGYUN 1C DEB", "OBJECT_ID": "1999-025TL", "EPOCH": "2025-12-04T10:13:51.139776", "MEAN_MOTION": 13.7375555, "ECCENTRICITY": 0.02418761, "INCLINATION": 99.7525, "RA_OF_ASC_NODE": 51.782, "ARG_OF_PERICENTER": 5.4506, "MEAN_ANOMALY": 354.919, "EPHEMERIS_TYPE": 0, "CLASSIFICATION_TYPE": "U", "NORAD_CAT_ID": 30155, "ELEMENT_SET_NO": 999, "REV_AT_EPOCH": 93750, "BSTAR": 0.0032830402, "MEAN_MOTION_DOT": 3.745e-05, "MEAN_MOTION_DDOT": 0}, "tle": {"line1": "1 30155U 99025TL  25338.42628634  .00003745  00000+0  32830-2 0  9991", "line2": "2 30155  99.7525  51.7820 0241876   5.4506 354.9190 13.73755550937500"}}, "geometry": {"type": "Point", "coordinates": [-128.24554033281944, -2.968699536341966]}}, {"type": "Feature", "properties": {"norad_id": 30156, "name": "FENGYUN 1C DEB", "group": "fengyun-1c-debris", "lat": -56.86818835468022, "lon": 112.412422189051, "alt_km": 864.8083239052576, "timestamp": "2025-12-04T21:36:16.147227+00:00", "meta": {"OBJECT_NAME": "FENGYUN 1C DEB", "OBJECT_ID": "1999-025TM", "EPOCH": "2025-12-03T08:41:31.729056", "MEAN_MOTION": 13.80756146, "ECCENTRICITY": 0.020016, "INCLINATION": 98.9176, "RA_OF_ASC_NODE": 304.8793, "ARG_OF_PERICENTER": 288.1138, "MEAN_ANOMALY": 230.476, "EPHEMERIS_TYPE": 0, "CLASSIFICATION_TYPE": "U", "NORAD_CAT_ID": 30156, "ELEMENT_SET_NO": 999, "REV_AT_EPOCH": 94561, "BSTAR": 0.0024003, "MEAN_MOTION_DOT": 2.895e-05, "MEAN_MOTION_DDOT": 0}, "tle": {"line1": "1 30156U 99025TM  25337.36217279  .00002895  00000+0  24003-2 0  9991", "line2": "2 30156  98.9176 304.8793 0200160 288.1138 230.4760 13.80756146945619"}}, "geometry": {"type": "Point", "coordinates": [112.412422189051, -56.86818835468022]}}, {"type": "Feature", "properties": {"norad_id": 30157, "name": "FENGYUN 1C DEB", "group": "fengyun-1c-debris", "lat": 32.85013541446224, "lon": -98.58232299384613, "alt_km": 730.8914693429306, "timestamp": "2025-12-04T21:36:16.147237+00:00", "meta": {"OBJECT_NAME": "FENGYUN 1C DEB", "OBJECT_ID": "1999-025TN", "EPOCH": "2025-12-04T06:13:49.285344", "MEAN_MOTION": 14.44893119, "ECCENTRICITY": 0.00369109, "INCLINATION": 98.7174, "RA_OF_ASC_NODE": 75.075, "ARG_OF_PERICENTER": 217.8089, "MEAN_ANOMALY": 199.005, "EPHEMERIS_TYPE": 0, "CLASSIFICATION_TYPE": "U", "NORAD_CAT_ID": 30157, "ELEMENT_SET_NO": 999, "REV_AT_EPOCH": 97950, "BSTAR": 0.0054888101, "MEAN_MOTION_DOT": 0.00019275, "MEAN_MOTION_DDOT": 0}, "tle": {"line1": "1 30157U 99025TN  25338.25959821  .00019275  00000+0  54888-2 0  9991", "line2": "2 30157  98.7174  75.0750 0036910 217.8089 199.0050 14.44893119979500"}}, "geometry": {"type": "Point", "coordinates": [-98.58232299384613, 32.85013541446224]}}]}